[{"OBJECT_NAME":"OBJECT B","OBJECT_ID":"2024-092B","EPOCH":"2026-03-09T22:35:16.756224","MEAN_MOTION":15.26654665,"ECCENTRICITY":0.00097063,"INCLINATION":97.6334,"RA_OF_ASC_NODE":195.5822,"ARG_OF_PERICENTER":166.5945,"MEAN_ANOMALY":193.5553,"EPHEMERIS_TYPE":0,"CLASSIFICATION_TYPE":"U","NORAD_CAT_ID":59774,"ELEMENT_SET_NO":999,"REV_AT_EPOCH":10038,"BSTAR":0.00052893964,"MEAN_MOTION_DOT":0.00013825,"MEAN_MOTION_DDOT":0},{"OBJECT_NAME":"STARLINK-36505","OBJECT_ID":"2026-008U","EPOCH":"2026-03-09T10:19:23.686464","MEAN_MOTION":15.27604385,"ECCENTRICITY":0.00031169,"INCLINATION":43.0003,"RA_OF_ASC_NODE":206.5863,"ARG_OF_PERICENTER":298.0886,"MEAN_ANOMALY":61.965,"EPHEMERIS_TYPE":0,"CLASSIFICATION_TYPE":"U","NORAD_CAT_ID":67463,"ELEMENT_SET_NO":999,"REV_AT_EPOCH":953,"BSTAR":0.0013965981,"MEAN_MOTION_DOT":0.00038401,"MEAN_MOTION_DDOT":0}]
